*******************************************************************************
 Revised: Dec 12, 2013               Neptune                                899
 
 PHYSICAL DATA (update 2009-May-26):
  Mass (10^24 kg)       =   102.41        Density (g/cm^3)       =  1.638
  Equat. radius (1 bar) = 24766+-15 km    Polar radius (km)      = 24342+-30
  Volumetric mean radius= 24624+-21 km    Flattening             =  0.0171 

  Rotation period       = 16.11+-0.01 hr  Rot. rate(10^-4 rad/s) =  1.083   
  m = w^2a^3/GM         =  0.02609        Hydrostatic flat., fh  =  0.01804
  Inferred rot. period  = 16.7+-1.4 hr    ks = 3*J2/m            =  0.407
  Mom. of inert. I/MRo^2=                 I/MRo^2 (upper bound)  =  0.239 
  Rocky core mass (Mc/M)=                 Y factor (He/H ratio)  =  0.235+-.040

  GM (km^3/s^2)         = 6,835,107       GM 1-sigma (km^3/s^2)  = +-15 
  Equ. grav, ge (m/s^2) = 11.15           Pol. grav, gp (m/s^2)  = 11.41+-0.03

  Geometric albedo      =  0.41           Visual magnitude V(1,0)= -6.87
  Vis. mag. (opposition)= +7.84           Obliquity to orbit     = 29.56 deg
  Sidereal orbit period = 164.79132 yr    Sidereal orbit period  = 60190.029 d
  Mean daily motion     = 0.006020076dg/d Mean orbit velocity    = 5.4778 km/s 

  Atmos. temp. (1 bar)  =  72+-2 K        Heat flow/mass (x10^7) =  2 erg/gm*s
  Planetary Solar Const =   1.47 W/m^2    Dipole tilt/offset     = 47deg/0.55Rp 
  Escape velocity (km/s)=  23.5           Mag.dip.mom(gauss-Rp^3)= 0.133
  Aroche(ice)/Rp        =  2.98           Hill's sphere rad., Rp = 4700
*******************************************************************************
 
 
*******************************************************************************
Ephemeris / WWW_USER Sat Jan 17 01:42:11 2015 Pasadena, USA      / Horizons    
*******************************************************************************
Target body name: Neptune (899)                   {source: NEP086}
Center body name: Earth (399)                     {source: NEP086}
Center-site name: GEOCENTRIC
*******************************************************************************
Start time      : A.D. 2004-Jan-01 00:00:00.0000 UT      
Stop  time      : A.D. 2014-Dec-31 00:00:00.0000 UT      
Step-size       : 1440 minutes
*******************************************************************************
Target pole/equ : IAU_NEPTUNE                     {East-longitude -}
Target radii    : 24764.0 x 24764.0 x 24341.0 km  {Equator, meridian, pole}    
Center geodetic : 0.00000000,0.00000000,0.0000000 {E-lon(deg),Lat(deg),Alt(km)}
Center cylindric: 0.00000000,0.00000000,0.0000000 {E-lon(deg),Dxy(km),Dz(km)}
Center pole/equ : High-precision EOP model        {East-longitude +}
Center radii    : 6378.1 x 6378.1 x 6356.8 km     {Equator, meridian, pole}    
Target primary  : Sun
Vis. interferer : MOON (R_eq= 1737.400) km        {source: NEP086}
Rel. light bend : Sun, EARTH                      {source: NEP086}
Rel. lght bnd GM: 1.3271E+11, 3.9860E+05 km^3/s^2                              
Atmos refraction: NO (AIRLESS)
RA format       : HMS
Time format     : CAL 
EOP file        : eop.150116.p150409                                           
EOP coverage    : DATA-BASED 1962-JAN-20 TO 2015-JAN-16. PREDICTS-> 2015-APR-08
Units conversion: 1 au= 149597870.700 km, c= 299792.458 km/s, 1 day= 86400.0 s 
Table cut-offs 1: Elevation (-90.0deg=NO ),Airmass (>38.000=NO), Daylight (NO )
Table cut-offs 2: Solar Elongation (  0.0,180.0=NO ),Local Hour Angle( 0.0=NO )
*******************************************************************************
 Date__(UT)__HR:MN      APmag  S-brt    S-T-O
*********************************************
$$SOE
 2006-Mar-27 00:00       7.96   9.43   1.3930
 2006-Mar-28 00:00       7.96   9.43   1.4149
 2006-Mar-29 00:00       7.96   9.43   1.4365
 2006-Mar-30 00:00       7.95   9.43   1.4577
 2006-Mar-31 00:00       7.95   9.43   1.4785
 2006-Apr-01 00:00       7.95   9.43   1.4989
 2006-Apr-02 00:00       7.95   9.43   1.5189
 2006-Apr-03 00:00       7.95   9.43   1.5384
 2006-Apr-04 00:00       7.95   9.43   1.5576
 2006-Apr-05 00:00       7.95   9.43   1.5762
 2006-Apr-06 00:00       7.95   9.43   1.5945
 2006-Apr-07 00:00       7.95   9.43   1.6123
 2006-Apr-08 00:00       7.95   9.43   1.6297
 2006-Apr-09 00:00       7.94   9.43   1.6466
 2006-Apr-10 00:00       7.94   9.42   1.6630
 2006-Apr-11 00:00       7.94   9.42   1.6790
 2006-Apr-12 00:00       7.94   9.42   1.6946
 2006-Apr-13 00:00       7.94   9.42   1.7096
 2006-Apr-14 00:00       7.94   9.42   1.7242
 2006-Apr-15 00:00       7.94   9.42   1.7384
 2006-Apr-16 00:00       7.94   9.42   1.7520
 2006-Apr-17 00:00       7.94   9.42   1.7652
 2006-Apr-18 00:00       7.93   9.41   1.7778
 2006-Apr-19 00:00       7.93   9.41   1.7900
 2006-Apr-20 00:00       7.93   9.41   1.8017
 2006-Apr-21 00:00       7.93   9.41   1.8129
 2006-Apr-22 00:00       7.93   9.41   1.8235
 2006-Apr-23 00:00       7.93   9.41   1.8337
 2006-Apr-24 00:00       7.93   9.41   1.8434
 2006-Apr-25 00:00       7.93   9.41   1.8525
 2006-Apr-26 00:00       7.93   9.41   1.8611
 2006-Apr-27 00:00       7.92   9.41   1.8692
 2006-Apr-28 00:00       7.92   9.41   1.8768
 2006-Apr-29 00:00       7.92   9.41   1.8839
 2006-Apr-30 00:00       7.92   9.41   1.8904
 2006-May-01 00:00       7.92   9.41   1.8963
 2006-May-02 00:00       7.92   9.41   1.9018
 2006-May-03 00:00       7.92   9.41   1.9067
 2006-May-04 00:00       7.92   9.41   1.9111
 2006-May-05 00:00       7.91   9.42   1.9149
 2006-May-06 00:00       7.91   9.42   1.9182
 2006-May-07 00:00       7.91   9.42   1.9209
 2006-May-08 00:00       7.91   9.42   1.9231
 2006-May-09 00:00       7.91   9.42   1.9248
 2006-May-10 00:00       7.91   9.42   1.9259
 2006-May-11 00:00       7.91   9.42   1.9265
 2006-May-12 00:00       7.91   9.42   1.9265
 2006-May-13 00:00       7.91   9.42   1.9260
 2006-May-14 00:00       7.90   9.43   1.9249
 2006-May-15 00:00       7.90   9.43   1.9233
 2006-May-16 00:00       7.90   9.43   1.9212
 2006-May-17 00:00       7.90   9.43   1.9185
 2006-May-18 00:00       7.90   9.43   1.9152
 2006-May-19 00:00       7.90   9.43   1.9114
 2006-May-20 00:00       7.90   9.43   1.9071
 2006-May-21 00:00       7.90   9.43   1.9022
 2006-May-22 00:00       7.89   9.43   1.8968
 2006-May-23 00:00       7.89   9.43   1.8908
 2006-May-24 00:00       7.89   9.43   1.8843
 2006-May-25 00:00       7.89   9.43   1.8773
 2006-May-26 00:00       7.89   9.43   1.8696
 2006-May-27 00:00       7.89   9.43   1.8615
 2006-May-28 00:00       7.89   9.43   1.8528
 2006-May-29 00:00       7.89   9.42   1.8436
 2006-May-30 00:00       7.88   9.42   1.8338
 2006-May-31 00:00       7.88   9.42   1.8235
 2006-Jun-01 00:00       7.88   9.42   1.8127
 2006-Jun-02 00:00       7.88   9.42   1.8014
 2006-Jun-03 00:00       7.88   9.42   1.7895
 2006-Jun-04 00:00       7.88   9.42   1.7771
 2006-Jun-05 00:00       7.88   9.42   1.7642
 2006-Jun-06 00:00       7.88   9.42   1.7508
 2006-Jun-07 00:00       7.88   9.41   1.7368
 2006-Jun-08 00:00       7.87   9.41   1.7224
 2006-Jun-09 00:00       7.87   9.41   1.7074
 2006-Jun-10 00:00       7.87   9.41   1.6920
 2006-Jun-11 00:00       7.87   9.41   1.6761
 2006-Jun-12 00:00       7.87   9.41   1.6597
 2006-Jun-13 00:00       7.87   9.41   1.6428
 2006-Jun-14 00:00       7.87   9.41   1.6254
 2006-Jun-15 00:00       7.87   9.41   1.6075
 2006-Jun-16 00:00       7.87   9.41   1.5892
 2006-Jun-17 00:00       7.86   9.41   1.5704
 2006-Jun-18 00:00       7.86   9.41   1.5511
 2006-Jun-19 00:00       7.86   9.41   1.5314
 2006-Jun-20 00:00       7.86   9.41   1.5112
 2006-Jun-21 00:00       7.86   9.41   1.4906
 2006-Jun-22 00:00       7.86   9.41   1.4695
 2006-Jun-23 00:00       7.86   9.42   1.4479
 2006-Jun-24 00:00       7.86   9.42   1.4260
 2006-Jun-25 00:00       7.86   9.42   1.4036
 2006-Jun-26 00:00       7.86   9.42   1.3808
 2006-Jun-27 00:00       7.86   9.42   1.3576
 2006-Jun-28 00:00       7.85   9.42   1.3340
 2006-Jun-29 00:00       7.85   9.42   1.3099
 2006-Jun-30 00:00       7.85   9.42   1.2855
 2006-Jul-01 00:00       7.85   9.42   1.2607
 2006-Jul-02 00:00       7.85   9.43   1.2355
 2006-Jul-03 00:00       7.85   9.43   1.2100
 2006-Jul-04 00:00       7.85   9.43   1.1841
 2006-Jul-05 00:00       7.85   9.43   1.1578
 2006-Jul-06 00:00       7.85   9.43   1.1312
 2006-Jul-07 00:00       7.85   9.43   1.1042
 2006-Jul-08 00:00       7.85   9.43   1.0769
 2006-Jul-09 00:00       7.85   9.43   1.0493
 2006-Jul-10 00:00       7.85   9.43   1.0214
 2006-Jul-11 00:00       7.84   9.43   0.9932
 2006-Jul-12 00:00       7.84   9.43   0.9647
 2006-Jul-13 00:00       7.84   9.43   0.9359
 2006-Jul-14 00:00       7.84   9.43   0.9068
 2006-Jul-15 00:00       7.84   9.43   0.8774
 2006-Jul-16 00:00       7.84   9.43   0.8477
 2006-Jul-17 00:00       7.84   9.42   0.8178
 2006-Jul-18 00:00       7.84   9.42   0.7877
 2006-Jul-19 00:00       7.84   9.42   0.7573
 2006-Jul-20 00:00       7.84   9.42   0.7266
 2006-Jul-21 00:00       7.84   9.42   0.6958
 2006-Jul-22 00:00       7.84   9.42   0.6647
 2006-Jul-23 00:00       7.84   9.42   0.6334
 2006-Jul-24 00:00       7.84   9.42   0.6020
 2006-Jul-25 00:00       7.84   9.42   0.5703
 2006-Jul-26 00:00       7.84   9.41   0.5385
 2006-Jul-27 00:00       7.84   9.41   0.5065
 2006-Jul-28 00:00       7.84   9.41   0.4743
 2006-Jul-29 00:00       7.84   9.41   0.4420
 2006-Jul-30 00:00       7.84   9.41   0.4096
 2006-Jul-31 00:00       7.84   9.41   0.3770
 2006-Aug-01 00:00       7.84   9.41   0.3443
 2006-Aug-02 00:00       7.84   9.41   0.3116
 2006-Aug-03 00:00       7.84   9.41   0.2787
 2006-Aug-04 00:00       7.83   9.41   0.2458
 2006-Aug-05 00:00       7.83   9.41   0.2128
 2006-Aug-06 00:00       7.83   9.41   0.1797
 2006-Aug-07 00:00       7.83   9.41   0.1466
 2006-Aug-08 00:00       7.83   9.41   0.1135
 2006-Aug-09 00:00       7.83   9.41   0.0803
